ELYSIUM STAR 2 & LFF    
1 43760U 18099C   24296.81728264  .00228148  00000+0  35863-2 0  9999
2 43760  97.4941   6.8539 0004836 196.6869 163.4225 15.52803402322823
